[{"OBJECT_NAME":"STARLINK-36135","OBJECT_ID":"2025-288AD","EPOCH":"2026-03-09T22:18:51.613056","MEAN_MOTION":15.27587448,"ECCENTRICITY":0.00013425,"INCLINATION":43.0036,"RA_OF_ASC_NODE":22.1315,"ARG_OF_PERICENTER":254.0422,"MEAN_ANOMALY":106.0282,"EPHEMERIS_TYPE":0,"CLASSIFICATION_TYPE":"U","NORAD_CAT_ID":66986,"ELEMENT_SET_NO":999,"REV_AT_EPOCH":1532,"BSTAR":0.0008482019,"MEAN_MOTION_DOT":0.00023157,"MEAN_MOTION_DDOT":0},{"OBJECT_NAME":"SL-3 DEB","OBJECT_ID":"1988-032D","EPOCH":"2026-03-09T21:36:49.536576","MEAN_MOTION":15.21301321,"ECCENTRICITY":0.00302448,"INCLINATION":97.5102,"RA_OF_ASC_NODE":52.3226,"ARG_OF_PERICENTER":221.5268,"MEAN_ANOMALY":138.367,"EPHEMERIS_TYPE":0,"CLASSIFICATION_TYPE":"U","NORAD_CAT_ID":25655,"ELEMENT_SET_NO":999,"REV_AT_EPOCH":5124,"BSTAR":0.00031081119,"MEAN_MOTION_DOT":6.967e-5,"MEAN_MOTION_DDOT":0}]
